{
  "type": "FeatureCollection",
  "features": [
    {
      "type": "Feature",
      "properties": {
        "norad_id": 31389,
        "name": "FENGYUN 1C DEB",
        "group": "fengyun-1c-debris",
        "lat": -61.02127664476476,
        "lon": -38.3384693934551,
        "alt_km": 689.3868153249505,
        "timestamp": "2025-12-18T10:51:26.089174+00:00",
        "meta_object_name": "FENGYUN 1C DEB",
        "meta_object_id": "1999-025BSV",
        "meta_epoch": "2025-12-17T17:24:47.851776",
        "meta_mean_motion": 14.61234742,
        "meta_eccentricity": 0.00282641,
        "meta_inclination": 99.0417,
        "meta_ra_of_asc_node": 157.5776,
        "meta_arg_of_pericenter": 174.3941,
        "meta_mean_anomaly": 206.3193,
        "meta_ephemeris_type": 0,
        "meta_classification_type": "U",
        "meta_norad_cat_id": 31389,
        "meta_element_set_no": 999,
        "meta_rev_at_epoch": 96570,
        "meta_bstar": 0.0035375501,
        "meta_mean_motion_dot": 0.00017526,
        "meta_mean_motion_ddot": 0,
        "tle_line1": "1 31389U 99025BSV 25351.72555384  .00017526  00000+0  35376-2 0  9990",
        "tle_line2": "2 31389  99.0417 157.5776 0028264 174.3941 206.3193 14.61234742965700"
      },
      "geometry": {
        "type": "Point",
        "coordinates": [
          -38.3384693934551,
          -61.02127664476476
        ]
      }
    },
    {
      "type": "Feature",
      "properties": {
        "norad_id": 31410,
        "name": "FENGYUN 1C DEB",
        "group": "fengyun-1c-debris",
        "lat": 2.0486420103494503,
        "lon": 153.91340906504362,
        "alt_km": 748.0524464800001,
        "timestamp": "2025-12-18T10:51:26.089185+00:00",
        "meta_object_name": "FENGYUN 1C DEB",
        "meta_object_id": "1999-025BSW",
        "meta_epoch": "2025-12-14T22:47:11.031072",
        "meta_mean_motion": 14.44781719,
        "meta_eccentricity": 0.01105426,
        "meta_inclination": 98.8361,
        "meta_ra_of_asc_node": 150.5907,
        "meta_arg_of_pericenter": 280.0598,
        "meta_mean_anomaly": 231.618,
        "meta_ephemeris_type": 0,
        "meta_classification_type": "U",
        "meta_norad_cat_id": 31410,
        "meta_element_set_no": 999,
        "meta_rev_at_epoch": 97783,
        "meta_bstar": 0.00068479426,
        "meta_mean_motion_dot": 2.511e-05,
        "meta_mean_motion_ddot": 0,
        "tle_line1": "1 31410U 99025BSW 25348.94943323  .00002511  00000+0  68479-3 0  9998",
        "tle_line2": "2 31410  98.8361 150.5907 0110542 280.0598 231.6180 14.44781719977839"
      },
      "geometry": {
        "type": "Point",
        "coordinates": [
          153.91340906504362,
          2.0486420103494503
        ]
      }
    },
    {
      "type": "Feature",
      "properties": {
        "norad_id": 31411,
        "name": "FENGYUN 1C DEB",
        "group": "fengyun-1c-debris",
        "lat": 48.15687611983633,
        "lon": -116.4983581698548,
        "alt_km": 814.5720138127253,
        "timestamp": "2025-12-18T10:51:26.089195+00:00",
        "meta_object_name": "FENGYUN 1C DEB",
        "meta_object_id": "1999-025BSX",
        "meta_epoch": "2025-12-15T22:31:06.885696",
        "meta_mean_motion": 14.27998601,
        "meta_eccentricity": 0.01007717,
        "meta_inclination": 98.6695,
        "meta_ra_of_asc_node": 51.1957,
        "meta_arg_of_pericenter": 245.3932,
        "meta_mean_anomaly": 289.5319,
        "meta_ephemeris_type": 0,
        "meta_classification_type": "U",
        "meta_norad_cat_id": 31411,
        "meta_element_set_no": 999,
        "meta_rev_at_epoch": 94525,
        "meta_bstar": 0.00041153592,
        "meta_mean_motion_dot": 1.033e-05,
        "meta_mean_motion_ddot": 0,
        "tle_line1": "1 31411U 99025BSX 25349.93827414  .00001033  00000+0  41154-3 0  9990",
        "tle_line2": "2 31411  98.6695  51.1957 0100771 245.3932 289.5319 14.27998601945256"
      },
      "geometry": {
        "type": "Point",
        "coordinates": [
          -116.4983581698548,
          48.15687611983633
        ]
      }
    },
    {
      "type": "Feature",
      "properties": {
        "norad_id": 31412,
        "name": "FENGYUN 1C DEB",
        "group": "fengyun-1c-debris",
        "lat": 76.42741311418617,
        "lon": 154.5975352849721,
        "alt_km": 899.5003838237626,
        "timestamp": "2025-12-18T10:51:26.089205+00:00",
        "meta_object_name": "FENGYUN 1C DEB",
        "meta_object_id": "1999-025BSY",
        "meta_epoch": "2025-12-17T07:07:49.110816",
        "meta_mean_motion": 14.09867435,
        "meta_eccentricity": 0.00834392,
        "meta_inclination": 98.5473,
        "meta_ra_of_asc_node": 294.9688,
        "meta_arg_of_pericenter": 322.5568,
        "meta_mean_anomaly": 36.9808,
        "meta_ephemeris_type": 0,
        "meta_classification_type": "U",
        "meta_norad_cat_id": 31412,
        "meta_element_set_no": 999,
        "meta_rev_at_epoch": 61056,
        "meta_bstar": 0.0015033788,
        "meta_mean_motion_dot": 2.691e-05,
        "meta_mean_motion_ddot": 0,
        "tle_line1": "1 31412U 99025BSY 25351.29709619  .00002691  00000+0  15034-2 0  9997",
        "tle_line2": "2 31412  98.5473 294.9688 0083439 322.5568  36.9808 14.09867435610562"
      },
      "geometry": {
        "type": "Point",
        "coordinates": [
          154.5975352849721,
          76.42741311418617
        ]
      }
    },
    {
      "type": "Feature",
      "properties": {
        "norad_id": 31415,
        "name": "FENGYUN 1C DEB",
        "group": "fengyun-1c-debris",
        "lat": 20.109414341749208,
        "lon": -58.45615104054547,
        "alt_km": 753.1933291252117,
        "timestamp": "2025-12-18T10:51:26.089216+00:00",
        "meta_object_name": "FENGYUN 1C DEB",
        "meta_object_id": "1999-025BTB",
        "meta_epoch": "2025-12-14T14:26:42.789696",
        "meta_mean_motion": 14.30617484,
        "meta_eccentricity": 0.00641277,
        "meta_inclination": 99.6387,
        "meta_ra_of_asc_node": 300.8477,
        "meta_arg_of_pericenter": 69.4394,
        "meta_mean_anomaly": 291.365,
        "meta_ephemeris_type": 0,
        "meta_classification_type": "U",
        "meta_norad_cat_id": 31415,
        "meta_element_set_no": 999,
        "meta_rev_at_epoch": 62857,
        "meta_bstar": 0.0013058291,
        "meta_mean_motion_dot": 3.436e-05,
        "meta_mean_motion_ddot": 0,
        "tle_line1": "1 31415U 99025BTB 25348.60188414  .00003436  00000+0  13058-2 0  9997",
        "tle_line2": "2 31415  99.6387 300.8477 0064127  69.4394 291.3650 14.30617484628574"
      },
      "geometry": {
        "type": "Point",
        "coordinates": [
          -58.45615104054547,
          20.109414341749208
        ]
      }
    },
    {
      "type": "Feature",
      "properties": {
        "norad_id": 31416,
        "name": "FENGYUN 1C DEB",
        "group": "fengyun-1c-debris",
        "lat": -80.90996070796402,
        "lon": 137.96340952672276,
        "alt_km": 685.4681997315665,
        "timestamp": "2025-12-18T10:51:26.089226+00:00",
        "meta_object_name": "FENGYUN 1C DEB",
        "meta_object_id": "1999-025BTC",
        "meta_epoch": "2025-12-15T23:16:12.713376",
        "meta_mean_motion": 14.40679331,
        "meta_eccentricity": 0.01330504,
        "meta_inclination": 99.0509,
        "meta_ra_of_asc_node": 40.3861,
        "meta_arg_of_pericenter": 241.4386,
        "meta_mean_anomaly": 117.3356,
        "meta_ephemeris_type": 0,
        "meta_classification_type": "U",
        "meta_norad_cat_id": 31416,
        "meta_element_set_no": 999,
        "meta_rev_at_epoch": 65566,
        "meta_bstar": 0.00028672946,
        "meta_mean_motion_dot": 9.62e-06,
        "meta_mean_motion_ddot": 0,
        "tle_line1": "1 31416U 99025BTC 25349.96959159  .00000962  00000+0  28673-3 0  9991",
        "tle_line2": "2 31416  99.0509  40.3861 0133050 241.4386 117.3356 14.40679331655663"
      },
      "geometry": {
        "type": "Point",
        "coordinates": [
          137.96340952672276,
          -80.90996070796402
        ]
      }
    },
    {
      "type": "Feature",
      "properties": {
        "norad_id": 31420,
        "name": "FENGYUN 1C DEB",
        "group": "fengyun-1c-debris",
        "lat": 63.397269569535325,
        "lon": 85.1167160524432,
        "alt_km": 842.8090577477087,
        "timestamp": "2025-12-18T10:51:26.089237+00:00",
        "meta_object_name": "FENGYUN 1C DEB",
        "meta_object_id": "1999-025BTG",
        "meta_epoch": "2025-12-17T05:01:53.002272",
        "meta_mean_motion": 14.40830352,
        "meta_eccentricity": 0.01354178,
        "meta_inclination": 97.5587,
        "meta_ra_of_asc_node": 248.6429,
        "meta_arg_of_pericenter": 314.3459,
        "meta_mean_anomaly": 198.4951,
        "meta_ephemeris_type": 0,
        "meta_classification_type": "U",
        "meta_norad_cat_id": 31420,
        "meta_element_set_no": 999,
        "meta_rev_at_epoch": 65058,
        "meta_bstar": 0.00048925496,
        "meta_mean_motion_dot": 1.706e-05,
        "meta_mean_motion_ddot": 0,
        "tle_line1": "1 31420U 99025BTG 25351.20964123  .00001706  00000+0  48925-3 0  9992",
        "tle_line2": "2 31420  97.5587 248.6429 0135417 314.3459 198.4951 14.40830352650589"
      },
      "geometry": {
        "type": "Point",
        "coordinates": [
          85.1167160524432,
          63.397269569535325
        ]
      }
    }
  ]
}